norad_id,name,regime,epoch,line1,line2,inclination,eccentricity,mean_motion,raan,arg_pericenter,mean_anomaly
44333,AT&T T-16,GEO,21011.46640847,1 44333U 19034A   21011.46640847 -.00000115  00000-0  00000+0 0  8253\,2 44333   0.0213 307.3741 0001364 187.7648  43.0760  1.00259270  5758,0.0213,0.0001364,1.0025927,307.3741,187.7648,43.076
44333,AT&T T-16,GEO,21011.55935956,1 44333U 19034A   21011.55935956 -.00000117  00000-0  00000-0 0    10\,2 44333   0.0221 306.2804 0000680 206.6416  58.8551  1.00272730  5768,0.0221,6.8e-05,1.0027273,306.2804,206.6416,58.8551
44333,AT&T T-16,GEO,21011.63534200,1 44333U 19034A   21011.63534200 -.00000117  00000-0  00000-0 0    16\,2 44333   0.0220 306.2582 0000773 205.9860  86.9604  1.00271085  5761,0.022,7.73e-05,1.00271085,306.2582,205.986,86.9604
44333,AT&T T-16,GEO,21011.99001993,1 44333U 19034A   21011.99001993 -.00000118  00000-0  00000+0 0  8279\,2 44333   0.0202 310.7220 0000884 203.9886 212.5224  1.00268938  5767,0.0202,8.84e-05,1.00268938,310.722,203.9886,212.5224
44333,AT&T T-16,GEO,21012.45918905,1 44333U 19034A   21012.45918905 -.00000119  00000-0  00000-0 0    17\,2 44333   0.0184 315.6231 0000894 198.7823  22.1864  1.00269110  5774,0.0184,8.94e-05,1.0026911,315.6231,198.7823,22.1864
44333,AT&T T-16,GEO,21012.92316691,1 44333U 19034A   21012.92316691 -.00000119  00000-0  00000-0 0    13\,2 44333   0.0161 320.3514 0000883 192.4320 191.2926  1.00268920  5772,0.0161,8.83e-05,1.0026892,320.3514,192.432,191.2926
44333,AT&T T-16,GEO,21013.19049755,1 44333U 19034A   21013.19049755 -.00000120  00000-0  00000+0 0  8285\,2 44333   0.0150 325.0482 0000866 187.0463 288.4814  1.00268979  5774,0.015,8.66e-05,1.00268979,325.0482,187.0463,288.4814
44333,AT&T T-16,GEO,21013.57728618,1 44333U 19034A   21013.57728618 -.00000121  00000-0  00000-0 0    14\,2 44333   0.0157 344.1321 0000865 166.9436  69.1215  1.00269008  5784,0.0157,8.65e-05,1.00269008,344.1321,166.9436,69.1215
44333,AT&T T-16,GEO,21013.61947271,1 44333U 19034A   21013.61947271 -.00000121  00000-0  00000-0 0    17\,2 44333   0.0156 344.7783 0000871 166.8667  83.7806  1.00269028  5783,0.0156,8.71e-05,1.00269028,344.7783,166.8667,83.7806
44333,AT&T T-16,GEO,21014.17966006,1 44333U 19034A   21014.17966006 -.00000122  00000-0  00000+0 0  8306\,2 44333   0.0158 353.4248 0000972 163.0969 281.1252  1.00274957  5780,0.0158,9.72e-05,1.00274957,353.4248,163.0969,281.1252
44333,AT&T T-16,GEO,21014.44697574,1 44333U 19034A   21014.44697574 -.00000123  00000-0  00000-0 0    19\,2 44333   0.0157 349.8256 0000965 186.6007 357.7220  1.00277491  5795,0.0157,9.65e-05,1.00277491,349.8256,186.6007,357.722
44333,AT&T T-16,GEO,21014.63436803,1 44333U 19034A   21014.63436803 -.00000122  00000-0  00000+0 0  8326\,2 44333   0.0159 347.5171 0001171 180.0013  74.2743  1.00272500  5789,0.0159,0.0001171,1.002725,347.5171,180.0013,74.2743
44333,AT&T T-16,GEO,21015.41268837,1 44333U 19034A   21015.41268837 -.00000123  00000-0  00000-0 0    13\,2 44333   0.0170 318.6117 0001009 230.2397 333.9126  1.00279871  5805,0.017,0.0001009,1.00279871,318.6117,230.2397,333.9126
44333,AT&T T-16,GEO,21015.63014436,1 44333U 19034A   21015.63014436 -.00000121  00000-0  00000-0 0    19\,2 44333   0.0196 312.8958 0001294 220.1213  68.2427  1.00271516  5803,0.0196,0.0001294,1.00271516,312.8958,220.1213,68.2427
44333,AT&T T-16,GEO,21016.54379235,1 44333U 19034A   21016.54379235 -.00000120  00000-0  00000-0 0    10\,2 44333   0.0305 284.6910 0001160 260.3440  26.0481  1.00276383  5819,0.0305,0.000116,1.00276383,284.691,260.344,26.0481
44333,AT&T T-16,GEO,21016.67656729,1 44333U 19034A   21016.67656729 -.00000119  00000-0  00000-0 0    18\,2 44333   0.0308 283.7353 0001338 253.2967  81.9777  1.00272026  5813,0.0308,0.0001338,1.00272026,283.7353,253.2967,81.9777
44333,AT&T T-16,GEO,21017.54212216,1 44333U 19034A   21017.54212216 -.00000117  00000-0  00000-0 0    12\,2 44333   0.0400 253.4745 0001440 290.4946  27.4998  1.00272516  5824,0.04,0.000144,1.00272516,253.4745,290.4946,27.4998
44333,AT&T T-16,GEO,21018.44222319,1 44333U 19034A   21018.44222319 -.00000114  00000-0  00000-0 0    14\,2 44333   0.0404 243.1124 0001058 294.8458 358.4305  1.00269246  5832,0.0404,0.0001058,1.00269246,243.1124,294.8458,358.4305
44333,AT&T T-16,GEO,21018.66545234,1 44333U 19034A   21018.66545234 -.00000113  00000-0  00000-0 0    11\,2 44333   0.0404 239.7091 0001052 300.1135  77.1470  1.00269554  5833,0.0404,0.0001052,1.00269554,239.7091,300.1135,77.147
44333,AT&T T-16,GEO,21019.09619051,1 44333U 19034A   21019.09619051 -.00000112  00000-0  00000+0 0  8418\,2 44333   0.0393 242.2400 0001009 297.4749 232.7416  1.00269641  5830,0.0393,0.0001009,1.00269641,242.24,297.4749,232.7416
44333,AT&T T-16,GEO,21019.52681914,1 44333U 19034A   21019.52681914 -.00000110  00000-0  00000-0 0    10\,2 44333   0.0379 245.3379 0000976 295.0973  27.4687  1.00269630  5846,0.0379,9.76e-05,1.0026963,245.3379,295.0973,27.4687
44333,AT&T T-16,GEO,21019.67040972,1 44333U 19034A   21019.67040972 -.00000110  00000-0  00000-0 0    19\,2 44333   0.0371 247.9456 0000982 293.5396  78.2518  1.00269655  5845,0.0371,9.82e-05,1.00269655,247.9456,293.5396,78.2518
44333,AT&T T-16,GEO,21020.61306084,1 44333U 19034A   21020.61306084 -.00000107  00000-0  00000-0 0    10\,2 44333   0.0225 298.5521 0000948 245.4865  55.9745  1.00269639  5854,0.0225,9.48e-05,1.00269639,298.5521,245.4865,55.9745
44333,AT&T T-16,GEO,21020.89065966,1 44333U 19034A   21020.89065966 -.00000106  00000-0  00000-0 0    10\,2 44333   0.0210 303.6310 0000940 241.3697 155.2194  1.00269634  5859,0.021,9.4e-05,1.00269634,303.631,241.3697,155.2194
44333,AT&T T-16,GEO,21021.03422340,1 44333U 19034A   21021.03422340 -.00000106  00000-0  00000+0 0  8433\,2 44333   0.0197 306.4637 0000935 238.6760 206.9038  1.00269631  5858,0.0197,9.35e-05,1.00269631,306.4637,238.676,206.9038
44333,AT&T T-16,GEO,21021.42865885,1 44333U 19034A   21021.42865885 -.00000106  00000-0  00000+0 0  8442\,2 44333   0.0196 305.8820 0001014 247.5839 340.9708  1.00275395  5856,0.0196,0.0001014,1.00275395,305.882,247.5839,340.9708
44333,AT&T T-16,GEO,21021.52083993,1 44333U 19034A   21021.52083993 -.00000105  00000-0  00000-0 0    10\,2 44333   0.0204 303.4684 0001053 252.3740  11.8728  1.00276296  5864,0.0204,0.0001053,1.00276296,303.4684,252.374,11.8728
44333,AT&T T-16,GEO,21021.68025601,1 44333U 19034A   21021.68025601 -.00000104  00000-0  00000-0 0    18\,2 44333   0.0209 302.8275 0001246 247.3906  75.0425  1.00272458  5862,0.0209,0.0001246,1.00272458,302.8275,247.3906,75.0425
44333,AT&T T-16,GEO,21022.25499439,1 44333U 19034A   21022.25499439 -.00000104  00000-0  00000+0 0  8462\,2 44333   0.0184 310.9020 0001147 240.7614 281.0743  1.00273601  5868,0.0184,0.0001147,1.00273601,310.902,240.7614,281.0743
44333,AT&T T-16,GEO,21023.52450670,1 44333U 19034A   21023.52450670 -.00000102  00000-0  00000+0 0  8476\,2 44333   0.0269 289.5237 0001399 267.4908  14.0087  1.00273140  5878,0.0269,0.0001399,1.0027314,289.5237,267.4908,14.0087
44333,AT&T T-16,GEO,21023.61381028,1 44333U 19034A   21023.61381028 -.00000102  00000-0  00000-0 0    19\,2 44333   0.0275 287.4056 0001423 267.0052  48.8487  1.00271882  5886,0.0275,0.0001423,1.00271882,287.4056,267.0052,48.8487
44333,AT&T T-16,GEO,21023.65624252,1 44333U 19034A   21023.65624252 -.00000102  00000-0  00000-0 0    12\,2 44333   0.0275 287.5273 0001408 267.4402  63.6098  1.00272141  5886,0.0275,0.0001408,1.00272141,287.5273,267.4402,63.6098
44333,AT&T T-16,GEO,21024.28416567,1 44333U 19034A   21024.28416567 -.00000102  00000-0  00000-0 0    10\,2 44333   0.0245 298.8445 0001320 258.1665 288.2406  1.00272849  5894,0.0245,0.000132,1.00272849,298.8445,258.1665,288.2406
44333,AT&T T-16,GEO,21024.62444046,1 44333U 19034A   21024.62444046 -.00000102  00000-0  00000-0 0    11\,2 44333   0.0306 282.4283 0001492 274.4671  51.1923  1.00271978  5892,0.0306,0.0001492,1.00271978,282.4283,274.4671,51.1923
44333,AT&T T-16,GEO,21025.22256424,1 44333U 19034A   21025.22256424 -.00000102  00000-0  00000-0 0    19\,2 44333   0.0283 289.8069 0001434 269.6431 264.5539  1.00272463  5900,0.0283,0.0001434,1.00272463,289.8069,269.6431,264.5539
44333,AT&T T-16,GEO,21025.62818619,1 44333U 19034A   21025.62818619 -.00000103  00000-0  00000+0 0  8493\,2 44333   0.0287 287.8936 0001006 272.8295  49.6984  1.00271024  5890,0.0287,0.0001006,1.00271024,287.8936,272.8295,49.6984
44333,AT&T T-16,GEO,21025.84344056,1 44333U 19034A   21025.84344056 -.00000103  00000-0  00000-0 0    17\,2 44333   0.0276 292.7792 0001057 267.4867 127.8569  1.00269732  5907,0.0276,0.0001057,1.00269732,292.7792,267.4867,127.8569
44333,AT&T T-16,GEO,21026.41771542,1 44333U 19034A   21026.41771542 -.00000104  00000-0  00000+0 0  8529\,2 44333   0.0221 306.8416 0001025 254.3034 334.2772  1.00269166  5904,0.0221,0.0001025,1.00269166,306.8416,254.3034,334.2772
44333,AT&T T-16,GEO,21026.49530494,1 44333U 19034A   21026.49530494 -.00000104  00000-0  00000-0 0    13\,2 44333   0.0194 313.3290 0001044 248.1042   1.9973  1.00269250  5913,0.0194,0.0001044,1.0026925,313.329,248.1042,1.9973
44333,AT&T T-16,GEO,21026.63301398,1 44333U 19034A   21026.63301398 -.00000104  00000-0  00000-0 0    18\,2 44333   0.0177 315.6285 0001015 245.3393  52.1723  1.00269183  5915,0.0177,0.0001015,1.00269183,315.6285,245.3393,52.1723
44333,AT&T T-16,GEO,21027.50854142,1 44333U 19034A   21027.50854142 -.00000106  00000-0  00000+0 0  8531\,2 44333   0.0135 329.9436 0000938 229.6579   9.5830  1.00269046  5912,0.0135,9.38e-05,1.00269046,329.9436,229.6579,9.583
44333,AT&T T-16,GEO,21027.85329293,1 44333U 19034A   21027.85329293 -.00000106  00000-0  00000-0 0    19\,2 44333   0.0117 354.8980 0000973 205.5173 133.2165  1.00269079  5928,0.0117,9.73e-05,1.00269079,354.898,205.5173,133.2165
44333,AT&T T-16,GEO,21028.19836885,1 44333U 19034A   21028.19836885 -.00000108  00000-0  00000+0 0  8544\,2 44333   0.0109   0.6890 0000779 199.7128 257.7985  1.00270883  5920,0.0109,7.79e-05,1.00270883,0.689,199.7128,257.7985
